ORBCOMM-X [-]           
1 21576U 91050C   23346.15816200  .00000256  00000+0  90711-4 0  9991
2 21576  98.4158  51.2232 0004668  65.9039 294.2639 14.42288163702596
ORBCOMM FM01 [-]        
1 23545U 95017A   23346.12143968  .00002773  00000+0  39800-3 0  9994
2 23545  69.9683 358.6895 0002179  34.4452 325.6837 14.77597472530844
ORBCOMM FM02 [-]        
1 23546U 95017B   23346.17759331  .00003233  00000+0  46652-3 0  9992
2 23546  69.9707  17.7132 0004450  41.7280 318.4207 14.77190302530452
ORBCOMM FM08 [-]        
1 25112U 97084A   23345.51017875  .00001194  00000+0  40642-3 0  9993
2 25112  45.0141 136.5839 0006418 328.7887  31.2581 14.41674535361533
ORBCOMM FM10 [-]        
1 25113U 97084B   23345.50924632  .00001314  00000+0  44371-3 0  9998
2 25113  45.0153 138.3411 0004621 293.3532  66.6832 14.41610553361521
ORBCOMM FM11 [+]        
1 25114U 97084C   23345.51585609  .00001176  00000+0  40244-3 0  9998
2 25114  45.0136 138.2623 0005304 294.8077  65.2220 14.41498255361480
ORBCOMM FM12 [-]        
1 25115U 97084D   23345.54205112  .00001072  00000+0  37091-3 0  9991
2 25115  45.0144 137.7916 0004339 294.8671  65.1727 14.41477664361286
ORBCOMM FM09 [-]        
1 25116U 97084E   23345.54995125  .00001007  00000+0  35135-3 0  9997
2 25116  45.0146 138.3989 0005742 280.3001  79.7202 14.41447098361492
